{
  "type": "FeatureCollection",
  "features": [
    {
      "type": "Feature",
      "properties": {
        "norad_id": 31736,
        "name": "FENGYUN 1C DEB",
        "group": "fengyun-1c-debris",
        "lat": -74.24684786154266,
        "lon": 32.1658055580423,
        "alt_km": 850.3557296616145,
        "timestamp": "2025-12-23T18:59:32.250616+00:00",
        "meta_object_name": "FENGYUN 1C DEB",
        "meta_object_id": "1999-025CEK",
        "meta_epoch": "2025-12-22T19:34:57.901152",
        "meta_mean_motion": 14.14189649,
        "meta_eccentricity": 0.0011415,
        "meta_inclination": 98.6781,
        "meta_ra_of_asc_node": 358.4385,
        "meta_arg_of_pericenter": 210.0103,
        "meta_mean_anomaly": 150.0417,
        "meta_ephemeris_type": 0,
        "meta_classification_type": "U",
        "meta_norad_cat_id": 31736,
        "meta_element_set_no": 999,
        "meta_rev_at_epoch": 64207,
        "meta_bstar": 0.0001354701,
        "meta_mean_motion_dot": 2.16e-06,
        "meta_mean_motion_ddot": 0,
        "tle_line1": "1 31736U 99025CEK 25356.81594793  .00000216  00000+0  13547-3 0  9993",
        "tle_line2": "2 31736  98.6781 358.4385 0011415 210.0103 150.0417 14.14189649642070"
      },
      "geometry": {
        "type": "Point",
        "coordinates": [
          32.1658055580423,
          -74.24684786154266
        ]
      }
    },
    {
      "type": "Feature",
      "properties": {
        "norad_id": 31737,
        "name": "FENGYUN 1C DEB",
        "group": "fengyun-1c-debris",
        "lat": -30.5253688394965,
        "lon": -153.74449224686632,
        "alt_km": 736.4586199412634,
        "timestamp": "2025-12-23T18:59:32.250632+00:00",
        "meta_object_name": "FENGYUN 1C DEB",
        "meta_object_id": "1999-025CEL",
        "meta_epoch": "2025-12-23T01:48:04.470336",
        "meta_mean_motion": 14.68816748,
        "meta_eccentricity": 0.01478512,
        "meta_inclination": 97.9157,
        "meta_ra_of_asc_node": 30.2674,
        "meta_arg_of_pericenter": 342.7415,
        "meta_mean_anomaly": 44.0138,
        "meta_ephemeris_type": 0,
        "meta_classification_type": "U",
        "meta_norad_cat_id": 31737,
        "meta_element_set_no": 999,
        "meta_rev_at_epoch": 98351,
        "meta_bstar": 0.00063078285,
        "meta_mean_motion_dot": 4.296e-05,
        "meta_mean_motion_ddot": 0,
        "tle_line1": "1 31737U 99025CEL 25357.07505174  .00004296  00000+0  63078-3 0  9994",
        "tle_line2": "2 31737  97.9157  30.2674 0147851 342.7415  44.0138 14.68816748983514"
      },
      "geometry": {
        "type": "Point",
        "coordinates": [
          -153.74449224686632,
          -30.5253688394965
        ]
      }
    },
    {
      "type": "Feature",
      "properties": {
        "norad_id": 31738,
        "name": "FENGYUN 1C DEB",
        "group": "fengyun-1c-debris",
        "lat": 16.72707300225395,
        "lon": -112.13254254524149,
        "alt_km": 947.8897872908556,
        "timestamp": "2025-12-23T18:59:32.250641+00:00",
        "meta_object_name": "FENGYUN 1C DEB",
        "meta_object_id": "1999-025CEM",
        "meta_epoch": "2025-12-21T22:53:59.524224",
        "meta_mean_motion": 13.85090039,
        "meta_eccentricity": 0.03067778,
        "meta_inclination": 99.3608,
        "meta_ra_of_asc_node": 63.1902,
        "meta_arg_of_pericenter": 75.6731,
        "meta_mean_anomaly": 287.8275,
        "meta_ephemeris_type": 0,
        "meta_classification_type": "U",
        "meta_norad_cat_id": 31738,
        "meta_element_set_no": 999,
        "meta_rev_at_epoch": 62385,
        "meta_bstar": 0.0012025689,
        "meta_mean_motion_dot": 1.923e-05,
        "meta_mean_motion_ddot": 0,
        "tle_line1": "1 31738U 99025CEM 25355.95416116  .00001923  00000+0  12026-2 0  9997",
        "tle_line2": "2 31738  99.3608  63.1902 0306777  75.6731 287.8275 13.85090039623850"
      },
      "geometry": {
        "type": "Point",
        "coordinates": [
          -112.13254254524149,
          16.72707300225395
        ]
      }
    },
    {
      "type": "Feature",
      "properties": {
        "norad_id": 31739,
        "name": "FENGYUN 1C DEB",
        "group": "fengyun-1c-debris",
        "lat": -7.227759204417133,
        "lon": 54.10173223677324,
        "alt_km": 776.5420612679418,
        "timestamp": "2025-12-23T18:59:32.250650+00:00",
        "meta_object_name": "FENGYUN 1C DEB",
        "meta_object_id": "1999-025CEN",
        "meta_epoch": "2025-12-22T21:01:48.237600",
        "meta_mean_motion": 14.19222249,
        "meta_eccentricity": 0.012814,
        "meta_inclination": 98.7461,
        "meta_ra_of_asc_node": 52.0797,
        "meta_arg_of_pericenter": 49.2852,
        "meta_mean_anomaly": 311.9371,
        "meta_ephemeris_type": 0,
        "meta_classification_type": "U",
        "meta_norad_cat_id": 31739,
        "meta_element_set_no": 999,
        "meta_rev_at_epoch": 95630,
        "meta_bstar": 9.2432e-05,
        "meta_mean_motion_dot": 1.67e-06,
        "meta_mean_motion_ddot": 0,
        "tle_line1": "1 31739U 99025CEN 25356.87625275  .00000167  00000+0  92432-4 0  9998",
        "tle_line2": "2 31739  98.7461  52.0797 0128140  49.2852 311.9371 14.19222249956300"
      },
      "geometry": {
        "type": "Point",
        "coordinates": [
          54.10173223677324,
          -7.227759204417133
        ]
      }
    },
    {
      "type": "Feature",
      "properties": {
        "norad_id": 31740,
        "name": "FENGYUN 1C DEB",
        "group": "fengyun-1c-debris",
        "lat": 35.89161053027074,
        "lon": -2.014267586781713,
        "alt_km": 753.5667047149091,
        "timestamp": "2025-12-23T18:59:32.250660+00:00",
        "meta_object_name": "FENGYUN 1C DEB",
        "meta_object_id": "1999-025CEP",
        "meta_epoch": "2025-12-14T23:34:19.860384",
        "meta_mean_motion": 14.42186075,
        "meta_eccentricity": 0.00242908,
        "meta_inclination": 99.8218,
        "meta_ra_of_asc_node": 160.6587,
        "meta_arg_of_pericenter": 61.8964,
        "meta_mean_anomaly": 89.7364,
        "meta_ephemeris_type": 0,
        "meta_classification_type": "U",
        "meta_norad_cat_id": 31740,
        "meta_element_set_no": 999,
        "meta_rev_at_epoch": 65107,
        "meta_bstar": 0.00089360339,
        "meta_mean_motion_dot": 2.898e-05,
        "meta_mean_motion_ddot": 0,
        "tle_line1": "1 31740U 99025CEP 25348.98217431  .00002898  00000+0  89360-3 0  9992",
        "tle_line2": "2 31740  99.8218 160.6587 0024290  61.8964  89.7364 14.42186075651072"
      },
      "geometry": {
        "type": "Point",
        "coordinates": [
          -2.014267586781713,
          35.89161053027074
        ]
      }
    },
    {
      "type": "Feature",
      "properties": {
        "norad_id": 31742,
        "name": "FENGYUN 1C DEB",
        "group": "fengyun-1c-debris",
        "lat": 30.144142858304185,
        "lon": 43.28854030120245,
        "alt_km": 803.1161169787847,
        "timestamp": "2025-12-23T18:59:32.250669+00:00",
        "meta_object_name": "FENGYUN 1C DEB",
        "meta_object_id": "1999-025CER",
        "meta_epoch": "2025-12-22T20:36:49.502592",
        "meta_mean_motion": 14.39834362,
        "meta_eccentricity": 0.00760495,
        "meta_inclination": 98.9191,
        "meta_ra_of_asc_node": 217.0858,
        "meta_arg_of_pericenter": 299.639,
        "meta_mean_anomaly": 59.7238,
        "meta_ephemeris_type": 0,
        "meta_classification_type": "U",
        "meta_norad_cat_id": 31742,
        "meta_element_set_no": 999,
        "meta_rev_at_epoch": 96795,
        "meta_bstar": 0.00062356509,
        "meta_mean_motion_dot": 1.975e-05,
        "meta_mean_motion_ddot": 0,
        "tle_line1": "1 31742U 99025CER 25356.85890628  .00001975  00000+0  62357-3 0  9996",
        "tle_line2": "2 31742  98.9191 217.0858 0076049 299.6390  59.7238 14.39834362967954"
      },
      "geometry": {
        "type": "Point",
        "coordinates": [
          43.28854030120245,
          30.144142858304185
        ]
      }
    },
    {
      "type": "Feature",
      "properties": {
        "norad_id": 31743,
        "name": "FENGYUN 1C DEB",
        "group": "fengyun-1c-debris",
        "lat": -73.36142059112,
        "lon": 73.6734123440102,
        "alt_km": 785.2516906182627,
        "timestamp": "2025-12-23T18:59:32.250677+00:00",
        "meta_object_name": "FENGYUN 1C DEB",
        "meta_object_id": "1999-025CES",
        "meta_epoch": "2025-12-23T01:19:45.081696",
        "meta_mean_motion": 14.31361983,
        "meta_eccentricity": 0.00373816,
        "meta_inclination": 99.144,
        "meta_ra_of_asc_node": 285.5118,
        "meta_arg_of_pericenter": 187.986,
        "meta_mean_anomaly": 237.4038,
        "meta_ephemeris_type": 0,
        "meta_classification_type": "U",
        "meta_norad_cat_id": 31743,
        "meta_element_set_no": 999,
        "meta_rev_at_epoch": 95788,
        "meta_bstar": 0.0013643147,
        "meta_mean_motion_dot": 3.596e-05,
        "meta_mean_motion_ddot": 0,
        "tle_line1": "1 31743U 99025CES 25357.05538289  .00003596  00000+0  13643-2 0  9996",
        "tle_line2": "2 31743  99.1440 285.5118 0037381 187.9860 237.4038 14.31361983957881"
      },
      "geometry": {
        "type": "Point",
        "coordinates": [
          73.6734123440102,
          -73.36142059112
        ]
      }
    }
  ]
}